HIERARCHY
ROOT Hips
{
    OFFSET 0.00 0.00 0.00
    CHANNELS 6 Xposition Yposition Zposition Zrotation Xrotation Yrotation
    JOINT Spine
    {
        OFFSET 0.00 5.21 0.00
        CHANNELS 3 Zrotation Xrotation Yrotation
        JOINT Spine1
        {
            OFFSET 0.00 5.41 0.00
            CHANNELS 3 Zrotation Xrotation Yrotation
            JOINT Neck
            {
                OFFSET 0.00 11.10 0.00
                CHANNELS 3 Zrotation Xrotation Yrotation
                JOINT Head
                {
                    OFFSET 0.00 4.97 0.00
                    CHANNELS 3 Zrotation Xrotation Yrotation
                    End Site
                    {
                        OFFSET 0.00 8.91 0.00
                    }
                }
            }
            JOINT LeftArm
            {
                OFFSET 5.49 0.00 0.00
                CHANNELS 3 Zrotation Xrotation Yrotation
                JOINT LeftForeArm
                {
                    OFFSET 9.46 0.00 0.00
                    CHANNELS 3 Zrotation Xrotation Yrotation
                    JOINT LeftHand
                    {
                        OFFSET 9.21 0.00 0.00
                        CHANNELS 3 Zrotation Xrotation Yrotation
                        End Site
                        {
                            OFFSET 4.00 0.00 0.00
                        }
                    }
                }
            }
            JOINT RightArm
            {
                OFFSET -5.49 0.00 0.00
                CHANNELS 3 Zrotation Xrotation Yrotation
                JOINT RightForeArm
                {
                    OFFSET -9.46 0.00 0.00
                    CHANNELS 3 Zrotation Xrotation Yrotation
                    JOINT RightHand
                    {
                        OFFSET -9.21 0.00 0.00
                        CHANNELS 3 Zrotation Xrotation Yrotation
                        End Site
                        {
                            OFFSET -4.00 0.00 0.00
                        }
                    }
                }
            }
        }
    }
    JOINT LeftUpLeg
    {
        OFFSET 3.91 0.00 0.00
        CHANNELS 3 Zrotation Xrotation Yrotation
        JOINT LeftLeg
        {
            OFFSET 0.00 -18.34 0.00
            CHANNELS 3 Zrotation Xrotation Yrotation
            JOINT LeftFoot
            {
                OFFSET 0.00 -17.37 0.00
                CHANNELS 3 Zrotation Xrotation Yrotation
                End Site
                {
                    OFFSET 0.00 -3.46 0.00
                }
            }
        }
    }
    JOINT RightUpLeg
    {
        OFFSET -3.91 0.00 0.00
        CHANNELS 3 Zrotation Xrotation Yrotation
        JOINT RightLeg
        {
            OFFSET 0.00 -18.34 0.00
            CHANNELS 3 Zrotation Xrotation Yrotation
            JOINT RightFoot
            {
                OFFSET 0.00 -17.37 0.00
                CHANNELS 3 Zrotation Xrotation Yrotation
                End Site
                {
                    OFFSET 0.00 -3.46 0.00
                }
            }
        }
    }
}
MOTION
Frames: 40
Frame Time: 0.033333
0.0000 1.5000 0.0000 0.0000 0.0000 0.0000 0.0000 0.0000 0.0000 0.0000 0.0000 0.0000 0.0000 0.0000 0.0000 0.0000 0.0000 0.0000 -40.0000 0.0000 0.0000 0.0000 0.0000 0.0000 0.0000 0.0000 0.0000 40.0000 0.0000 0.0000 0.0000 0.0000 0.0000 0.0000 0.0000 0.0000 -10.0000 0.0000 0.0000 0.0000 0.0000 0.0000 0.0000 0.0000 0.0000 10.0000 0.0000 0.0000 0.0000 0.0000 0.0000 0.0000 0.0000 0.0000
0.0000 1.7347 0.0000 0.0000 0.0000 0.0000 0.0000 0.0000 0.0000 0.0000 0.0000 0.0000 0.0000 0.0000 0.0000 0.0000 0.0000 0.0000 -46.2574 0.0000 0.0000 0.0000 0.0000 0.0000 0.0000 0.0000 0.0000 46.2574 0.0000 0.0000 0.0000 0.0000 0.0000 0.0000 0.0000 0.0000 -11.5643 0.0000 0.0000 0.0000 0.0000 0.0000 0.0000 0.0000 0.0000 11.5643 0.0000 0.0000 0.0000 0.0000 0.0000 0.0000 0.0000 0.0000
0.0000 1.9635 0.0000 0.0000 0.0000 0.0000 0.0000 0.0000 0.0000 0.0000 0.0000 0.0000 0.0000 0.0000 0.0000 0.0000 0.0000 0.0000 -52.3607 0.0000 0.0000 0.0000 0.0000 0.0000 0.0000 0.0000 0.0000 52.3607 0.0000 0.0000 0.0000 0.0000 0.0000 0.0000 0.0000 0.0000 -13.0902 0.0000 0.0000 0.0000 0.0000 0.0000 0.0000 0.0000 0.0000 13.0902 0.0000 0.0000 0.0000 0.0000 0.0000 0.0000 0.0000 0.0000
0.0000 2.1810 0.0000 0.0000 0.0000 0.0000 0.0000 0.0000 0.0000 0.0000 0.0000 0.0000 0.0000 0.0000 0.0000 0.0000 0.0000 0.0000 -58.1596 0.0000 0.0000 0.0000 0.0000 0.0000 0.0000 0.0000 0.0000 58.1596 0.0000 0.0000 0.0000 0.0000 0.0000 0.0000 0.0000 0.0000 -14.5399 0.0000 0.0000 0.0000 0.0000 0.0000 0.0000 0.0000 0.0000 14.5399 0.0000 0.0000 0.0000 0.0000 0.0000 0.0000 0.0000 0.0000
0.0000 2.3817 0.0000 0.0000 0.0000 0.0000 0.0000 0.0000 0.0000 0.0000 0.0000 0.0000 0.0000 0.0000 0.0000 0.0000 0.0000 0.0000 -63.5114 0.0000 0.0000 0.0000 0.0000 0.0000 0.0000 0.0000 0.0000 63.5114 0.0000 0.0000 0.0000 0.0000 0.0000 0.0000 0.0000 0.0000 -15.8779 0.0000 0.0000 0.0000 0.0000 0.0000 0.0000 0.0000 0.0000 15.8779 0.0000 0.0000 0.0000 0.0000 0.0000 0.0000 0.0000 0.0000
0.0000 2.5607 0.0000 0.0000 0.0000 0.0000 0.0000 0.0000 0.0000 0.0000 0.0000 0.0000 0.0000 0.0000 0.0000 0.0000 0.0000 0.0000 -68.2843 0.0000 0.0000 0.0000 0.0000 0.0000 0.0000 0.0000 0.0000 68.2843 0.0000 0.0000 0.0000 0.0000 0.0000 0.0000 0.0000 0.0000 -17.0711 0.0000 0.0000 0.0000 0.0000 0.0000 0.0000 0.0000 0.0000 17.0711 0.0000 0.0000 0.0000 0.0000 0.0000 0.0000 0.0000 0.0000
0.0000 2.7135 0.0000 0.0000 0.0000 0.0000 0.0000 0.0000 0.0000 0.0000 0.0000 0.0000 0.0000 0.0000 0.0000 0.0000 0.0000 0.0000 -72.3607 0.0000 0.0000 0.0000 0.0000 0.0000 0.0000 0.0000 0.0000 72.3607 0.0000 0.0000 0.0000 0.0000 0.0000 0.0000 0.0000 0.0000 -18.0902 0.0000 0.0000 0.0000 0.0000 0.0000 0.0000 0.0000 0.0000 18.0902 0.0000 0.0000 0.0000 0.0000 0.0000 0.0000 0.0000 0.0000
0.0000 2.8365 0.0000 0.0000 0.0000 0.0000 0.0000 0.0000 0.0000 0.0000 0.0000 0.0000 0.0000 0.0000 0.0000 0.0000 0.0000 0.0000 -75.6403 0.0000 0.0000 0.0000 0.0000 0.0000 0.0000 0.0000 0.0000 75.6403 0.0000 0.0000 0.0000 0.0000 0.0000 0.0000 0.0000 0.0000 -18.9101 0.0000 0.0000 0.0000 0.0000 0.0000 0.0000 0.0000 0.0000 18.9101 0.0000 0.0000 0.0000 0.0000 0.0000 0.0000 0.0000 0.0000
0.0000 2.9266 0.0000 0.0000 0.0000 0.0000 0.0000 0.0000 0.0000 0.0000 0.0000 0.0000 0.0000 0.0000 0.0000 0.0000 0.0000 0.0000 -78.0423 0.0000 0.0000 0.0000 0.0000 0.0000 0.0000 0.0000 0.0000 78.0423 0.0000 0.0000 0.0000 0.0000 0.0000 0.0000 0.0000 0.0000 -19.5106 0.0000 0.0000 0.0000 0.0000 0.0000 0.0000 0.0000 0.0000 19.5106 0.0000 0.0000 0.0000 0.0000 0.0000 0.0000 0.0000 0.0000
0.0000 2.9815 0.0000 0.0000 0.0000 0.0000 0.0000 0.0000 0.0000 0.0000 0.0000 0.0000 0.0000 0.0000 0.0000 0.0000 0.0000 0.0000 -79.5075 0.0000 0.0000 0.0000 0.0000 0.0000 0.0000 0.0000 0.0000 79.5075 0.0000 0.0000 0.0000 0.0000 0.0000 0.0000 0.0000 0.0000 -19.8769 0.0000 0.0000 0.0000 0.0000 0.0000 0.0000 0.0000 0.0000 19.8769 0.0000 0.0000 0.0000 0.0000 0.0000 0.0000 0.0000 0.0000
0.0000 3.0000 0.0000 0.0000 0.0000 0.0000 0.0000 0.0000 0.0000 0.0000 0.0000 0.0000 0.0000 0.0000 0.0000 0.0000 0.0000 0.0000 -80.0000 0.0000 0.0000 0.0000 0.0000 0.0000 0.0000 0.0000 0.0000 80.0000 0.0000 0.0000 0.0000 0.0000 0.0000 0.0000 0.0000 0.0000 -20.0000 0.0000 0.0000 0.0000 0.0000 0.0000 0.0000 0.0000 0.0000 20.0000 0.0000 0.0000 0.0000 0.0000 0.0000 0.0000 0.0000 0.0000
0.0000 2.9815 0.0000 0.0000 0.0000 0.0000 0.0000 0.0000 0.0000 0.0000 0.0000 0.0000 0.0000 0.0000 0.0000 0.0000 0.0000 0.0000 -79.5075 0.0000 0.0000 0.0000 0.0000 0.0000 0.0000 0.0000 0.0000 79.5075 0.0000 0.0000 0.0000 0.0000 0.0000 0.0000 0.0000 0.0000 -19.8769 0.0000 0.0000 0.0000 0.0000 0.0000 0.0000 0.0000 0.0000 19.8769 0.0000 0.0000 0.0000 0.0000 0.0000 0.0000 0.0000 0.0000
0.0000 2.9266 0.0000 0.0000 0.0000 0.0000 0.0000 0.0000 0.0000 0.0000 0.0000 0.0000 0.0000 0.0000 0.0000 0.0000 0.0000 0.0000 -78.0423 0.0000 0.0000 0.0000 0.0000 0.0000 0.0000 0.0000 0.0000 78.0423 0.0000 0.0000 0.0000 0.0000 0.0000 0.0000 0.0000 0.0000 -19.5106 0.0000 0.0000 0.0000 0.0000 0.0000 0.0000 0.0000 0.0000 19.5106 0.0000 0.0000 0.0000 0.0000 0.0000 0.0000 0.0000 0.0000
0.0000 2.8365 0.0000 0.0000 0.0000 0.0000 0.0000 0.0000 0.0000 0.0000 0.0000 0.0000 0.0000 0.0000 0.0000 0.0000 0.0000 0.0000 -75.6403 0.0000 0.0000 0.0000 0.0000 0.0000 0.0000 0.0000 0.0000 75.6403 0.0000 0.0000 0.0000 0.0000 0.0000 0.0000 0.0000 0.0000 -18.9101 0.0000 0.0000 0.0000 0.0000 0.0000 0.0000 0.0000 0.0000 18.9101 0.0000 0.0000 0.0000 0.0000 0.0000 0.0000 0.0000 0.0000
0.0000 2.7135 0.0000 0.0000 0.0000 0.0000 0.0000 0.0000 0.0000 0.0000 0.0000 0.0000 0.0000 0.0000 0.0000 0.0000 0.0000 0.0000 -72.3607 0.0000 0.0000 0.0000 0.0000 0.0000 0.0000 0.0000 0.0000 72.3607 0.0000 0.0000 0.0000 0.0000 0.0000 0.0000 0.0000 0.0000 -18.0902 0.0000 0.0000 0.0000 0.0000 0.0000 0.0000 0.0000 0.0000 18.0902 0.0000 0.0000 0.0000 0.0000 0.0000 0.0000 0.0000 0.0000
0.0000 2.5607 0.0000 0.0000 0.0000 0.0000 0.0000 0.0000 0.0000 0.0000 0.0000 0.0000 0.0000 0.0000 0.0000 0.0000 0.0000 0.0000 -68.2843 0.0000 0.0000 0.0000 0.0000 0.0000 0.0000 0.0000 0.0000 68.2843 0.0000 0.0000 0.0000 0.0000 0.0000 0.0000 0.0000 0.0000 -17.0711 0.0000 0.0000 0.0000 0.0000 0.0000 0.0000 0.0000 0.0000 17.0711 0.0000 0.0000 0.0000 0.0000 0.0000 0.0000 0.0000 0.0000
0.0000 2.3817 0.0000 0.0000 0.0000 0.0000 0.0000 0.0000 0.0000 0.0000 0.0000 0.0000 0.0000 0.0000 0.0000 0.0000 0.0000 0.0000 -63.5114 0.0000 0.0000 0.0000 0.0000 0.0000 0.0000 0.0000 0.0000 63.5114 0.0000 0.0000 0.0000 0.0000 0.0000 0.0000 0.0000 0.0000 -15.8779 0.0000 0.0000 0.0000 0.0000 0.0000 0.0000 0.0000 0.0000 15.8779 0.0000 0.0000 0.0000 0.0000 0.0000 0.0000 0.0000 0.0000
0.0000 2.1810 0.0000 0.0000 0.0000 0.0000 0.0000 0.0000 0.0000 0.0000 0.0000 0.0000 0.0000 0.0000 0.0000 0.0000 0.0000 0.0000 -58.1596 0.0000 0.0000 0.0000 0.0000 0.0000 0.0000 0.0000 0.0000 58.1596 0.0000 0.0000 0.0000 0.0000 0.0000 0.0000 0.0000 0.0000 -14.5399 0.0000 0.0000 0.0000 0.0000 0.0000 0.0000 0.0000 0.0000 14.5399 0.0000 0.0000 0.0000 0.0000 0.0000 0.0000 0.0000 0.0000
0.0000 1.9635 0.0000 0.0000 0.0000 0.0000 0.0000 0.0000 0.0000 0.0000 0.0000 0.0000 0.0000 0.0000 0.0000 0.0000 0.0000 0.0000 -52.3607 0.0000 0.0000 0.0000 0.0000 0.0000 0.0000 0.0000 0.0000 52.3607 0.0000 0.0000 0.0000 0.0000 0.0000 0.0000 0.0000 0.0000 -13.0902 0.0000 0.0000 0.0000 0.0000 0.0000 0.0000 0.0000 0.0000 13.0902 0.0000 0.0000 0.0000 0.0000 0.0000 0.0000 0.0000 0.0000
0.0000 1.7347 0.0000 0.0000 0.0000 0.0000 0.0000 0.0000 0.0000 0.0000 0.0000 0.0000 0.0000 0.0000 0.0000 0.0000 0.0000 0.0000 -46.2574 0.0000 0.0000 0.0000 0.0000 0.0000 0.0000 0.0000 0.0000 46.2574 0.0000 0.0000 0.0000 0.0000 0.0000 0.0000 0.0000 0.0000 -11.5643 0.0000 0.0000 0.0000 0.0000 0.0000 0.0000 0.0000 0.0000 11.5643 0.0000 0.0000 0.0000 0.0000 0.0000 0.0000 0.0000 0.0000
0.0000 1.5000 0.0000 0.0000 0.0000 0.0000 0.0000 0.0000 0.0000 0.0000 0.0000 0.0000 0.0000 0.0000 0.0000 0.0000 0.0000 0.0000 -40.0000 0.0000 0.0000 0.0000 0.0000 0.0000 0.0000 0.0000 0.0000 40.0000 0.0000 0.0000 0.0000 0.0000 0.0000 0.0000 0.0000 0.0000 -10.0000 0.0000 0.0000 0.0000 0.0000 0.0000 0.0000 0.0000 0.0000 10.0000 0.0000 0.0000 0.0000 0.0000 0.0000 0.0000 0.0000 0.0000
0.0000 1.2653 0.0000 0.0000 0.0000 0.0000 0.0000 0.0000 0.0000 0.0000 0.0000 0.0000 0.0000 0.0000 0.0000 0.0000 0.0000 0.0000 -33.7426 0.0000 0.0000 0.0000 0.0000 0.0000 0.0000 0.0000 0.0000 33.7426 0.0000 0.0000 0.0000 0.0000 0.0000 0.0000 0.0000 0.0000 -8.4357 0.0000 0.0000 0.0000 0.0000 0.0000 0.0000 0.0000 0.0000 8.4357 0.0000 0.0000 0.0000 0.0000 0.0000 0.0000 0.0000 0.0000
0.0000 1.0365 0.0000 0.0000 0.0000 0.0000 0.0000 0.0000 0.0000 0.0000 0.0000 0.0000 0.0000 0.0000 0.0000 0.0000 0.0000 0.0000 -27.6393 0.0000 0.0000 0.0000 0.0000 0.0000 0.0000 0.0000 0.0000 27.6393 0.0000 0.0000 0.0000 0.0000 0.0000 0.0000 0.0000 0.0000 -6.9098 0.0000 0.0000 0.0000 0.0000 0.0000 0.0000 0.0000 0.0000 6.9098 0.0000 0.0000 0.0000 0.0000 0.0000 0.0000 0.0000 0.0000
0.0000 0.8190 0.0000 0.0000 0.0000 0.0000 0.0000 0.0000 0.0000 0.0000 0.0000 0.0000 0.0000 0.0000 0.0000 0.0000 0.0000 0.0000 -21.8404 0.0000 0.0000 0.0000 0.0000 0.0000 0.0000 0.0000 0.0000 21.8404 0.0000 0.0000 0.0000 0.0000 0.0000 0.0000 0.0000 0.0000 -5.4601 0.0000 0.0000 0.0000 0.0000 0.0000 0.0000 0.0000 0.0000 5.4601 0.0000 0.0000 0.0000 0.0000 0.0000 0.0000 0.0000 0.0000
0.0000 0.6183 0.0000 0.0000 0.0000 0.0000 0.0000 0.0000 0.0000 0.0000 0.0000 0.0000 0.0000 0.0000 0.0000 0.0000 0.0000 0.0000 -16.4886 0.0000 0.0000 0.0000 0.0000 0.0000 0.0000 0.0000 0.0000 16.4886 0.0000 0.0000 0.0000 0.0000 0.0000 0.0000 0.0000 0.0000 -4.1221 0.0000 0.0000 0.0000 0.0000 0.0000 0.0000 0.0000 0.0000 4.1221 0.0000 0.0000 0.0000 0.0000 0.0000 0.0000 0.0000 0.0000
0.0000 0.4393 0.0000 0.0000 0.0000 0.0000 0.0000 0.0000 0.0000 0.0000 0.0000 0.0000 0.0000 0.0000 0.0000 0.0000 0.0000 0.0000 -11.7157 0.0000 0.0000 0.0000 0.0000 0.0000 0.0000 0.0000 0.0000 11.7157 0.0000 0.0000 0.0000 0.0000 0.0000 0.0000 0.0000 0.0000 -2.9289 0.0000 0.0000 0.0000 0.0000 0.0000 0.0000 0.0000 0.0000 2.9289 0.0000 0.0000 0.0000 0.0000 0.0000 0.0000 0.0000 0.0000
0.0000 0.2865 0.0000 0.0000 0.0000 0.0000 0.0000 0.0000 0.0000 0.0000 0.0000 0.0000 0.0000 0.0000 0.0000 0.0000 0.0000 0.0000 -7.6393 0.0000 0.0000 0.0000 0.0000 0.0000 0.0000 0.0000 0.0000 7.6393 0.0000 0.0000 0.0000 0.0000 0.0000 0.0000 0.0000 0.0000 -1.9098 0.0000 0.0000 0.0000 0.0000 0.0000 0.0000 0.0000 0.0000 1.9098 0.0000 0.0000 0.0000 0.0000 0.0000 0.0000 0.0000 0.0000
0.0000 0.1635 0.0000 0.0000 0.0000 0.0000 0.0000 0.0000 0.0000 0.0000 0.0000 0.0000 0.0000 0.0000 0.0000 0.0000 0.0000 0.0000 -4.3597 0.0000 0.0000 0.0000 0.0000 0.0000 0.0000 0.0000 0.0000 4.3597 0.0000 0.0000 0.0000 0.0000 0.0000 0.0000 0.0000 0.0000 -1.0899 0.0000 0.0000 0.0000 0.0000 0.0000 0.0000 0.0000 0.0000 1.0899 0.0000 0.0000 0.0000 0.0000 0.0000 0.0000 0.0000 0.0000
0.0000 0.0734 0.0000 0.0000 0.0000 0.0000 0.0000 0.0000 0.0000 0.0000 0.0000 0.0000 0.0000 0.0000 0.0000 0.0000 0.0000 0.0000 -1.9577 0.0000 0.0000 0.0000 0.0000 0.0000 0.0000 0.0000 0.0000 1.9577 0.0000 0.0000 0.0000 0.0000 0.0000 0.0000 0.0000 0.0000 -0.4894 0.0000 0.0000 0.0000 0.0000 0.0000 0.0000 0.0000 0.0000 0.4894 0.0000 0.0000 0.0000 0.0000 0.0000 0.0000 0.0000 0.0000
0.0000 0.0185 0.0000 0.0000 0.0000 0.0000 0.0000 0.0000 0.0000 0.0000 0.0000 0.0000 0.0000 0.0000 0.0000 0.0000 0.0000 0.0000 -0.4925 0.0000 0.0000 0.0000 0.0000 0.0000 0.0000 0.0000 0.0000 0.4925 0.0000 0.0000 0.0000 0.0000 0.0000 0.0000 0.0000 0.0000 -0.1231 0.0000 0.0000 0.0000 0.0000 0.0000 0.0000 0.0000 0.0000 0.1231 0.0000 0.0000 0.0000 0.0000 0.0000 0.0000 0.0000 0.0000
0.0000 0.0000 0.0000 0.0000 0.0000 0.0000 0.0000 0.0000 0.0000 0.0000 0.0000 0.0000 0.0000 0.0000 0.0000 0.0000 0.0000 0.0000 -0.0000 0.0000 0.0000 0.0000 0.0000 0.0000 0.0000 0.0000 0.0000 0.0000 0.0000 0.0000 0.0000 0.0000 0.0000 0.0000 0.0000 0.0000 -0.0000 0.0000 0.0000 0.0000 0.0000 0.0000 0.0000 0.0000 0.0000 0.0000 0.0000 0.0000 0.0000 0.0000 0.0000 0.0000 0.0000 0.0000
0.0000 0.0185 0.0000 0.0000 0.0000 0.0000 0.0000 0.0000 0.0000 0.0000 0.0000 0.0000 0.0000 0.0000 0.0000 0.0000 0.0000 0.0000 -0.4925 0.0000 0.0000 0.0000 0.0000 0.0000 0.0000 0.0000 0.0000 0.4925 0.0000 0.0000 0.0000 0.0000 0.0000 0.0000 0.0000 0.0000 -0.1231 0.0000 0.0000 0.0000 0.0000 0.0000 0.0000 0.0000 0.0000 0.1231 0.0000 0.0000 0.0000 0.0000 0.0000 0.0000 0.0000 0.0000
0.0000 0.0734 0.0000 0.0000 0.0000 0.0000 0.0000 0.0000 0.0000 0.0000 0.0000 0.0000 0.0000 0.0000 0.0000 0.0000 0.0000 0.0000 -1.9577 0.0000 0.0000 0.0000 0.0000 0.0000 0.0000 0.0000 0.0000 1.9577 0.0000 0.0000 0.0000 0.0000 0.0000 0.0000 0.0000 0.0000 -0.4894 0.0000 0.0000 0.0000 0.0000 0.0000 0.0000 0.0000 0.0000 0.4894 0.0000 0.0000 0.0000 0.0000 0.0000 0.0000 0.0000 0.0000
0.0000 0.1635 0.0000 0.0000 0.0000 0.0000 0.0000 0.0000 0.0000 0.0000 0.0000 0.0000 0.0000 0.0000 0.0000 0.0000 0.0000 0.0000 -4.3597 0.0000 0.0000 0.0000 0.0000 0.0000 0.0000 0.0000 0.0000 4.3597 0.0000 0.0000 0.0000 0.0000 0.0000 0.0000 0.0000 0.0000 -1.0899 0.0000 0.0000 0.0000 0.0000 0.0000 0.0000 0.0000 0.0000 1.0899 0.0000 0.0000 0.0000 0.0000 0.0000 0.0000 0.0000 0.0000
0.0000 0.2865 0.0000 0.0000 0.0000 0.0000 0.0000 0.0000 0.0000 0.0000 0.0000 0.0000 0.0000 0.0000 0.0000 0.0000 0.0000 0.0000 -7.6393 0.0000 0.0000 0.0000 0.0000 0.0000 0.0000 0.0000 0.0000 7.6393 0.0000 0.0000 0.0000 0.0000 0.0000 0.0000 0.0000 0.0000 -1.9098 0.0000 0.0000 0.0000 0.0000 0.0000 0.0000 0.0000 0.0000 1.9098 0.0000 0.0000 0.0000 0.0000 0.0000 0.0000 0.0000 0.0000
0.0000 0.4393 0.0000 0.0000 0.0000 0.0000 0.0000 0.0000 0.0000 0.0000 0.0000 0.0000 0.0000 0.0000 0.0000 0.0000 0.0000 0.0000 -11.7157 0.0000 0.0000 0.0000 0.0000 0.0000 0.0000 0.0000 0.0000 11.7157 0.0000 0.0000 0.0000 0.0000 0.0000 0.0000 0.0000 0.0000 -2.9289 0.0000 0.0000 0.0000 0.0000 0.0000 0.0000 0.0000 0.0000 2.9289 0.0000 0.0000 0.0000 0.0000 0.0000 0.0000 0.0000 0.0000
0.0000 0.6183 0.0000 0.0000 0.0000 0.0000 0.0000 0.0000 0.0000 0.0000 0.0000 0.0000 0.0000 0.0000 0.0000 0.0000 0.0000 0.0000 -16.4886 0.0000 0.0000 0.0000 0.0000 0.0000 0.0000 0.0000 0.0000 16.4886 0.0000 0.0000 0.0000 0.0000 0.0000 0.0000 0.0000 0.0000 -4.1221 0.0000 0.0000 0.0000 0.0000 0.0000 0.0000 0.0000 0.0000 4.1221 0.0000 0.0000 0.0000 0.0000 0.0000 0.0000 0.0000 0.0000
0.0000 0.8190 0.0000 0.0000 0.0000 0.0000 0.0000 0.0000 0.0000 0.0000 0.0000 0.0000 0.0000 0.0000 0.0000 0.0000 0.0000 0.0000 -21.8404 0.0000 0.0000 0.0000 0.0000 0.0000 0.0000 0.0000 0.0000 21.8404 0.0000 0.0000 0.0000 0.0000 0.0000 0.0000 0.0000 0.0000 -5.4601 0.0000 0.0000 0.0000 0.0000 0.0000 0.0000 0.0000 0.0000 5.4601 0.0000 0.0000 0.0000 0.0000 0.0000 0.0000 0.0000 0.0000
0.0000 1.0365 0.0000 0.0000 0.0000 0.0000 0.0000 0.0000 0.0000 0.0000 0.0000 0.0000 0.0000 0.0000 0.0000 0.0000 0.0000 0.0000 -27.6393 0.0000 0.0000 0.0000 0.0000 0.0000 0.0000 0.0000 0.0000 27.6393 0.0000 0.0000 0.0000 0.0000 0.0000 0.0000 0.0000 0.0000 -6.9098 0.0000 0.0000 0.0000 0.0000 0.0000 0.0000 0.0000 0.0000 6.9098 0.0000 0.0000 0.0000 0.0000 0.0000 0.0000 0.0000 0.0000
0.0000 1.2653 0.0000 0.0000 0.0000 0.0000 0.0000 0.0000 0.0000 0.0000 0.0000 0.0000 0.0000 0.0000 0.0000 0.0000 0.0000 0.0000 -33.7426 0.0000 0.0000 0.0000 0.0000 0.0000 0.0000 0.0000 0.0000 33.7426 0.0000 0.0000 0.0000 0.0000 0.0000 0.0000 0.0000 0.0000 -8.4357 0.0000 0.0000 0.0000 0.0000 0.0000 0.0000 0.0000 0.0000 8.4357 0.0000 0.0000 0.0000 0.0000 0.0000 0.0000 0.0000 0.0000
