HIERARCHY
ROOT Hips
{
    OFFSET 0.00 0.00 0.00
    CHANNELS 6 Xposition Yposition Zposition Zrotation Xrotation Yrotation
    JOINT Spine
    {
        OFFSET 0.00 5.21 0.00
        CHANNELS 3 Zrotation Xrotation Yrotation
        JOINT Spine1
        {
            OFFSET 0.00 5.41 0.00
            CHANNELS 3 Zrotation Xrotation Yrotation
            JOINT Neck
            {
                OFFSET 0.00 11.10 0.00
                CHANNELS 3 Zrotation Xrotation Yrotation
                JOINT Head
                {
                    OFFSET 0.00 4.97 0.00
                    CHANNELS 3 Zrotation Xrotation Yrotation
                    End Site
                    {
                        OFFSET 0.00 8.91 0.00
                    }
                }
            }
            JOINT LeftArm
            {
                OFFSET 5.49 0.00 0.00
                CHANNELS 3 Zrotation Xrotation Yrotation
                JOINT LeftForeArm
                {
                    OFFSET 9.46 0.00 0.00
                    CHANNELS 3 Zrotation Xrotation Yrotation
                    JOINT LeftHand
                    {
                        OFFSET 9.21 0.00 0.00
                        CHANNELS 3 Zrotation Xrotation Yrotation
                        End Site
                        {
                            OFFSET 4.00 0.00 0.00
                        }
                    }
                }
            }
            JOINT RightArm
            {
                OFFSET -5.49 0.00 0.00
                CHANNELS 3 Zrotation Xrotation Yrotation
                JOINT RightForeArm
                {
                    OFFSET -9.46 0.00 0.00
                    CHANNELS 3 Zrotation Xrotation Yrotation
                    JOINT RightHand
                    {
                        OFFSET -9.21 0.00 0.00
                        CHANNELS 3 Zrotation Xrotation Yrotation
                        End Site
                        {
                            OFFSET -4.00 0.00 0.00
                        }
                    }
                }
            }
        }
    }
    JOINT LeftUpLeg
    {
        OFFSET 3.91 0.00 0.00
        CHANNELS 3 Zrotation Xrotation Yrotation
        JOINT LeftLeg
        {
            OFFSET 0.00 -18.34 0.00
            CHANNELS 3 Zrotation Xrotation Yrotation
            JOINT LeftFoot
            {
                OFFSET 0.00 -17.37 0.00
                CHANNELS 3 Zrotation Xrotation Yrotation
                End Site
                {
                    OFFSET 0.00 -3.46 0.00
                }
            }
        }
    }
    JOINT RightUpLeg
    {
        OFFSET -3.91 0.00 0.00
        CHANNELS 3 Zrotation Xrotation Yrotation
        JOINT RightLeg
        {
            OFFSET 0.00 -18.34 0.00
            CHANNELS 3 Zrotation Xrotation Yrotation
            JOINT RightFoot
            {
                OFFSET 0.00 -17.37 0.00
                CHANNELS 3 Zrotation Xrotation Yrotation
                End Site
                {
                    OFFSET 0.00 -3.46 0.00
                }
            }
        }
    }
}
MOTION
Frames: 60
Frame Time: 0.033333
0.0000 0.0000 0.0000 0.0000 0.0000 0.0000 0.0000 10.0000 0.0000 0.0000 10.0000 0.0000 0.0000 0.0000 0.0000 0.0000 -5.0000 0.0000 30.0000 -60.0000 0.0000 0.0000 20.0000 0.0000 0.0000 0.0000 0.0000 -30.0000 -60.0000 0.0000 0.0000 20.0000 0.0000 0.0000 0.0000 0.0000 0.0000 0.0000 0.0000 0.0000 0.0000 0.0000 0.0000 0.0000 0.0000 0.0000 -0.0000 0.0000 0.0000 0.0000 0.0000 0.0000 0.0000 0.0000
0.0000 0.0000 0.0000 0.0000 0.4187 0.0000 0.0000 10.0000 0.0000 0.0000 10.0000 0.0000 0.0000 0.0000 0.0000 0.0000 -5.0000 0.0000 30.0000 -60.0000 0.0000 0.0000 20.0000 0.0000 0.0000 0.0000 0.0000 -30.0000 -60.0000 0.0000 0.0000 20.0000 0.0000 0.0000 0.0000 0.0000 0.0000 1.4634 0.0000 0.0000 -0.6272 0.0000 0.0000 0.0000 0.0000 0.0000 -1.4634 0.0000 0.0000 0.0000 0.0000 0.0000 0.0000 0.0000
0.0000 0.0000 0.0000 0.0000 0.8362 0.0000 0.0000 10.0000 0.0000 0.0000 10.0000 0.0000 0.0000 0.0000 0.0000 0.0000 -5.0000 0.0000 30.0000 -60.0000 0.0000 0.0000 20.0000 0.0000 0.0000 0.0000 0.0000 -30.0000 -60.0000 0.0000 0.0000 20.0000 0.0000 0.0000 0.0000 0.0000 0.0000 2.9108 0.0000 0.0000 -1.2475 0.0000 0.0000 0.0000 0.0000 0.0000 -2.9108 0.0000 0.0000 0.0000 0.0000 0.0000 0.0000 0.0000
0.0000 0.0000 0.0000 0.0000 1.2515 0.0000 0.0000 10.0000 0.0000 0.0000 10.0000 0.0000 0.0000 0.0000 0.0000 0.0000 -5.0000 0.0000 30.0000 -60.0000 0.0000 0.0000 20.0000 0.0000 0.0000 0.0000 0.0000 -30.0000 -60.0000 0.0000 0.0000 20.0000 0.0000 0.0000 0.0000 0.0000 0.0000 4.3262 0.0000 0.0000 -1.8541 0.0000 0.0000 0.0000 0.0000 0.0000 -4.3262 0.0000 0.0000 0.0000 0.0000 0.0000 0.0000 0.0000
0.0000 0.0000 0.0000 0.0000 1.6633 0.0000 0.0000 10.0000 0.0000 0.0000 10.0000 0.0000 0.0000 0.0000 0.0000 0.0000 -5.0000 0.0000 30.0000 -60.0000 0.0000 0.0000 20.0000 0.0000 0.0000 0.0000 0.0000 -30.0000 -60.0000 0.0000 0.0000 20.0000 0.0000 0.0000 0.0000 0.0000 0.0000 5.6943 0.0000 0.0000 -2.4404 0.0000 0.0000 0.0000 0.0000 0.0000 -5.6943 0.0000 0.0000 0.0000 0.0000 0.0000 0.0000 0.0000
0.0000 0.0000 0.0000 0.0000 2.0706 0.0000 0.0000 10.0000 0.0000 0.0000 10.0000 0.0000 0.0000 0.0000 0.0000 0.0000 -5.0000 0.0000 30.0000 -60.0000 0.0000 0.0000 20.0000 0.0000 0.0000 0.0000 0.0000 -30.0000 -60.0000 0.0000 0.0000 20.0000 0.0000 0.0000 0.0000 0.0000 0.0000 7.0000 0.0000 0.0000 -3.0000 0.0000 0.0000 0.0000 0.0000 0.0000 -7.0000 0.0000 0.0000 0.0000 0.0000 0.0000 0.0000 0.0000
0.0000 0.0000 0.0000 0.0000 2.4721 0.0000 0.0000 10.0000 0.0000 0.0000 10.0000 0.0000 0.0000 0.0000 0.0000 0.0000 -5.0000 0.0000 30.0000 -60.0000 0.0000 0.0000 20.0000 0.0000 0.0000 0.0000 0.0000 -30.0000 -60.0000 0.0000 0.0000 20.0000 0.0000 0.0000 0.0000 0.0000 0.0000 8.2290 0.0000 0.0000 -3.5267 0.0000 0.0000 0.0000 0.0000 0.0000 -8.2290 0.0000 0.0000 0.0000 0.0000 0.0000 0.0000 0.0000
0.0000 0.0000 0.0000 0.0000 2.8669 0.0000 0.0000 10.0000 0.0000 0.0000 10.0000 0.0000 0.0000 0.0000 0.0000 0.0000 -5.0000 0.0000 30.0000 -60.0000 0.0000 0.0000 20.0000 0.0000 0.0000 0.0000 0.0000 -30.0000 -60.0000 0.0000 0.0000 20.0000 0.0000 0.0000 0.0000 0.0000 0.0000 9.3678 0.0000 0.0000 -4.0148 0.0000 0.0000 0.0000 0.0000 0.0000 -9.3678 0.0000 0.0000 0.0000 0.0000 0.0000 0.0000 0.0000
0.0000 0.0000 0.0000 0.0000 3.2539 0.0000 0.0000 10.0000 0.0000 0.0000 10.0000 0.0000 0.0000 0.0000 0.0000 0.0000 -5.0000 0.0000 30.0000 -60.0000 0.0000 0.0000 20.0000 0.0000 0.0000 0.0000 0.0000 -30.0000 -60.0000 0.0000 0.0000 20.0000 0.0000 0.0000 0.0000 0.0000 0.0000 10.4040 0.0000 0.0000 -4.4589 0.0000 0.0000 0.0000 0.0000 0.0000 -10.4040 0.0000 0.0000 0.0000 0.0000 0.0000 0.0000 0.0000
0.0000 0.0000 0.0000 0.0000 3.6319 0.0000 0.0000 10.0000 0.0000 0.0000 10.0000 0.0000 0.0000 0.0000 0.0000 0.0000 -5.0000 0.0000 30.0000 -60.0000 0.0000 0.0000 20.0000 0.0000 0.0000 0.0000 0.0000 -30.0000 -60.0000 0.0000 0.0000 20.0000 0.0000 0.0000 0.0000 0.0000 0.0000 11.3262 0.0000 0.0000 -4.8541 0.0000 0.0000 0.0000 0.0000 0.0000 -11.3262 0.0000 0.0000 0.0000 0.0000 0.0000 0.0000 0.0000
0.0000 0.0000 0.0000 0.0000 4.0000 0.0000 0.0000 10.0000 0.0000 0.0000 10.0000 0.0000 0.0000 0.0000 0.0000 0.0000 -5.0000 0.0000 30.0000 -60.0000 0.0000 0.0000 20.0000 0.0000 0.0000 0.0000 0.0000 -30.0000 -60.0000 0.0000 0.0000 20.0000 0.0000 0.0000 0.0000 0.0000 0.0000 12.1244 0.0000 0.0000 -5.1962 0.0000 0.0000 0.0000 0.0000 0.0000 -12.1244 0.0000 0.0000 0.0000 0.0000 0.0000 0.0000 0.0000
0.0000 0.0000 0.0000 0.0000 4.3571 0.0000 0.0000 10.0000 0.0000 0.0000 10.0000 0.0000 0.0000 0.0000 0.0000 0.0000 -5.0000 0.0000 30.0000 -60.0000 0.0000 0.0000 20.0000 0.0000 0.0000 0.0000 0.0000 -30.0000 -60.0000 0.0000 0.0000 20.0000 0.0000 0.0000 0.0000 0.0000 0.0000 12.7896 0.0000 0.0000 -5.4813 0.0000 0.0000 0.0000 0.0000 0.0000 -12.7896 0.0000 0.0000 0.0000 0.0000 0.0000 0.0000 0.0000
0.0000 0.0000 0.0000 0.0000 4.7023 0.0000 0.0000 10.0000 0.0000 0.0000 10.0000 0.0000 0.0000 0.0000 0.0000 0.0000 -5.0000 0.0000 30.0000 -60.0000 0.0000 0.0000 20.0000 0.0000 0.0000 0.0000 0.0000 -30.0000 -60.0000 0.0000 0.0000 20.0000 0.0000 0.0000 0.0000 0.0000 0.0000 13.3148 0.0000 0.0000 -5.7063 0.0000 0.0000 0.0000 0.0000 0.0000 -13.3148 0.0000 0.0000 0.0000 0.0000 0.0000 0.0000 0.0000
0.0000 0.0000 0.0000 0.0000 5.0346 0.0000 0.0000 10.0000 0.0000 0.0000 10.0000 0.0000 0.0000 0.0000 0.0000 0.0000 -5.0000 0.0000 30.0000 -60.0000 0.0000 0.0000 20.0000 0.0000 0.0000 0.0000 0.0000 -30.0000 -60.0000 0.0000 0.0000 20.0000 0.0000 0.0000 0.0000 0.0000 0.0000 13.6941 0.0000 0.0000 -5.8689 0.0000 0.0000 0.0000 0.0000 0.0000 -13.6941 0.0000 0.0000 0.0000 0.0000 0.0000 0.0000 0.0000
0.0000 0.0000 0.0000 0.0000 5.3530 0.0000 0.0000 10.0000 0.0000 0.0000 10.0000 0.0000 0.0000 0.0000 0.0000 0.0000 -5.0000 0.0000 30.0000 -60.0000 0.0000 0.0000 20.0000 0.0000 0.0000 0.0000 0.0000 -30.0000 -60.0000 0.0000 0.0000 20.0000 0.0000 0.0000 0.0000 0.0000 0.0000 13.9233 0.0000 0.0000 -5.9671 0.0000 0.0000 0.0000 0.0000 0.0000 -13.9233 0.0000 0.0000 0.0000 0.0000 0.0000 0.0000 0.0000
0.0000 0.0000 0.0000 0.0000 5.6569 0.0000 0.0000 10.0000 0.0000 0.0000 10.0000 0.0000 0.0000 0.0000 0.0000 0.0000 -5.0000 0.0000 30.0000 -60.0000 0.0000 0.0000 20.0000 0.0000 0.0000 0.0000 0.0000 -30.0000 -60.0000 0.0000 0.0000 20.0000 0.0000 0.0000 0.0000 0.0000 0.0000 14.0000 0.0000 0.0000 -6.0000 0.0000 0.0000 0.0000 0.0000 0.0000 -14.0000 0.0000 0.0000 0.0000 0.0000 0.0000 0.0000 0.0000
0.0000 0.0000 0.0000 0.0000 5.9452 0.0000 0.0000 10.0000 0.0000 0.0000 10.0000 0.0000 0.0000 0.0000 0.0000 0.0000 -5.0000 0.0000 30.0000 -60.0000 0.0000 0.0000 20.0000 0.0000 0.0000 0.0000 0.0000 -30.0000 -60.0000 0.0000 0.0000 20.0000 0.0000 0.0000 0.0000 0.0000 0.0000 13.9233 0.0000 0.0000 -5.9671 0.0000 0.0000 0.0000 0.0000 0.0000 -13.9233 0.0000 0.0000 0.0000 0.0000 0.0000 0.0000 0.0000
0.0000 0.0000 0.0000 0.0000 6.2172 0.0000 0.0000 10.0000 0.0000 0.0000 10.0000 0.0000 0.0000 0.0000 0.0000 0.0000 -5.0000 0.0000 30.0000 -60.0000 0.0000 0.0000 20.0000 0.0000 0.0000 0.0000 0.0000 -30.0000 -60.0000 0.0000 0.0000 20.0000 0.0000 0.0000 0.0000 0.0000 0.0000 13.6941 0.0000 0.0000 -5.8689 0.0000 0.0000 0.0000 0.0000 0.0000 -13.6941 0.0000 0.0000 0.0000 0.0000 0.0000 0.0000 0.0000
0.0000 0.0000 0.0000 0.0000 6.4721 0.0000 0.0000 10.0000 0.0000 0.0000 10.0000 0.0000 0.0000 0.0000 0.0000 0.0000 -5.0000 0.0000 30.0000 -60.0000 0.0000 0.0000 20.0000 0.0000 0.0000 0.0000 0.0000 -30.0000 -60.0000 0.0000 0.0000 20.0000 0.0000 0.0000 0.0000 0.0000 0.0000 13.3148 0.0000 0.0000 -5.7063 0.0000 0.0000 0.0000 0.0000 0.0000 -13.3148 0.0000 0.0000 0.0000 0.0000 0.0000 0.0000 0.0000
0.0000 0.0000 0.0000 0.0000 6.7094 0.0000 0.0000 10.0000 0.0000 0.0000 10.0000 0.0000 0.0000 0.0000 0.0000 0.0000 -5.0000 0.0000 30.0000 -60.0000 0.0000 0.0000 20.0000 0.0000 0.0000 0.0000 0.0000 -30.0000 -60.0000 0.0000 0.0000 20.0000 0.0000 0.0000 0.0000 0.0000 0.0000 12.7896 0.0000 0.0000 -5.4813 0.0000 0.0000 0.0000 0.0000 0.0000 -12.7896 0.0000 0.0000 0.0000 0.0000 0.0000 0.0000 0.0000
0.0000 0.0000 0.0000 0.0000 6.9282 0.0000 0.0000 10.0000 0.0000 0.0000 10.0000 0.0000 0.0000 0.0000 0.0000 0.0000 -5.0000 0.0000 30.0000 -60.0000 0.0000 0.0000 20.0000 0.0000 0.0000 0.0000 0.0000 -30.0000 -60.0000 0.0000 0.0000 20.0000 0.0000 0.0000 0.0000 0.0000 0.0000 12.1244 0.0000 0.0000 -5.1962 0.0000 0.0000 0.0000 0.0000 0.0000 -12.1244 0.0000 0.0000 0.0000 0.0000 0.0000 0.0000 0.0000
0.0000 0.0000 0.0000 0.0000 7.1281 0.0000 0.0000 10.0000 0.0000 0.0000 10.0000 0.0000 0.0000 0.0000 0.0000 0.0000 -5.0000 0.0000 30.0000 -60.0000 0.0000 0.0000 20.0000 0.0000 0.0000 0.0000 0.0000 -30.0000 -60.0000 0.0000 0.0000 20.0000 0.0000 0.0000 0.0000 0.0000 0.0000 11.3262 0.0000 0.0000 -4.8541 0.0000 0.0000 0.0000 0.0000 0.0000 -11.3262 0.0000 0.0000 0.0000 0.0000 0.0000 0.0000 0.0000
0.0000 0.0000 0.0000 0.0000 7.3084 0.0000 0.0000 10.0000 0.0000 0.0000 10.0000 0.0000 0.0000 0.0000 0.0000 0.0000 -5.0000 0.0000 30.0000 -60.0000 0.0000 0.0000 20.0000 0.0000 0.0000 0.0000 0.0000 -30.0000 -60.0000 0.0000 0.0000 20.0000 0.0000 0.0000 0.0000 0.0000 0.0000 10.4040 0.0000 0.0000 -4.4589 0.0000 0.0000 0.0000 0.0000 0.0000 -10.4040 0.0000 0.0000 0.0000 0.0000 0.0000 0.0000 0.0000
0.0000 0.0000 0.0000 0.0000 7.4686 0.0000 0.0000 10.0000 0.0000 0.0000 10.0000 0.0000 0.0000 0.0000 0.0000 0.0000 -5.0000 0.0000 30.0000 -60.0000 0.0000 0.0000 20.0000 0.0000 0.0000 0.0000 0.0000 -30.0000 -60.0000 0.0000 0.0000 20.0000 0.0000 0.0000 0.0000 0.0000 0.0000 9.3678 0.0000 0.0000 -4.0148 0.0000 0.0000 0.0000 0.0000 0.0000 -9.3678 0.0000 0.0000 0.0000 0.0000 0.0000 0.0000 0.0000
0.0000 0.0000 0.0000 0.0000 7.6085 0.0000 0.0000 10.0000 0.0000 0.0000 10.0000 0.0000 0.0000 0.0000 0.0000 0.0000 -5.0000 0.0000 30.0000 -60.0000 0.0000 0.0000 20.0000 0.0000 0.0000 0.0000 0.0000 -30.0000 -60.0000 0.0000 0.0000 20.0000 0.0000 0.0000 0.0000 0.0000 0.0000 8.2290 0.0000 0.0000 -3.5267 0.0000 0.0000 0.0000 0.0000 0.0000 -8.2290 0.0000 0.0000 0.0000 0.0000 0.0000 0.0000 0.0000
0.0000 0.0000 0.0000 0.0000 7.7274 0.0000 0.0000 10.0000 0.0000 0.0000 10.0000 0.0000 0.0000 0.0000 0.0000 0.0000 -5.0000 0.0000 30.0000 -60.0000 0.0000 0.0000 20.0000 0.0000 0.0000 0.0000 0.0000 -30.0000 -60.0000 0.0000 0.0000 20.0000 0.0000 0.0000 0.0000 0.0000 0.0000 7.0000 0.0000 0.0000 -3.0000 0.0000 0.0000 0.0000 0.0000 0.0000 -7.0000 0.0000 0.0000 0.0000 0.0000 0.0000 0.0000 0.0000
0.0000 0.0000 0.0000 0.0000 7.8252 0.0000 0.0000 10.0000 0.0000 0.0000 10.0000 0.0000 0.0000 0.0000 0.0000 0.0000 -5.0000 0.0000 30.0000 -60.0000 0.0000 0.0000 20.0000 0.0000 0.0000 0.0000 0.0000 -30.0000 -60.0000 0.0000 0.0000 20.0000 0.0000 0.0000 0.0000 0.0000 0.0000 5.6943 0.0000 0.0000 -2.4404 0.0000 0.0000 0.0000 0.0000 0.0000 -5.6943 0.0000 0.0000 0.0000 0.0000 0.0000 0.0000 0.0000
0.0000 0.0000 0.0000 0.0000 7.9015 0.0000 0.0000 10.0000 0.0000 0.0000 10.0000 0.0000 0.0000 0.0000 0.0000 0.0000 -5.0000 0.0000 30.0000 -60.0000 0.0000 0.0000 20.0000 0.0000 0.0000 0.0000 0.0000 -30.0000 -60.0000 0.0000 0.0000 20.0000 0.0000 0.0000 0.0000 0.0000 0.0000 4.3262 0.0000 0.0000 -1.8541 0.0000 0.0000 0.0000 0.0000 0.0000 -4.3262 0.0000 0.0000 0.0000 0.0000 0.0000 0.0000 0.0000
0.0000 0.0000 0.0000 0.0000 7.9562 0.0000 0.0000 10.0000 0.0000 0.0000 10.0000 0.0000 0.0000 0.0000 0.0000 0.0000 -5.0000 0.0000 30.0000 -60.0000 0.0000 0.0000 20.0000 0.0000 0.0000 0.0000 0.0000 -30.0000 -60.0000 0.0000 0.0000 20.0000 0.0000 0.0000 0.0000 0.0000 0.0000 2.9108 0.0000 0.0000 -1.2475 0.0000 0.0000 0.0000 0.0000 0.0000 -2.9108 0.0000 0.0000 0.0000 0.0000 0.0000 0.0000 0.0000
0.0000 0.0000 0.0000 0.0000 7.9890 0.0000 0.0000 10.0000 0.0000 0.0000 10.0000 0.0000 0.0000 0.0000 0.0000 0.0000 -5.0000 0.0000 30.0000 -60.0000 0.0000 0.0000 20.0000 0.0000 0.0000 0.0000 0.0000 -30.0000 -60.0000 0.0000 0.0000 20.0000 0.0000 0.0000 0.0000 0.0000 0.0000 1.4634 0.0000 0.0000 -0.6272 0.0000 0.0000 0.0000 0.0000 0.0000 -1.4634 0.0000 0.0000 0.0000 0.0000 0.0000 0.0000 0.0000
0.0000 0.0000 0.0000 0.0000 8.0000 0.0000 0.0000 10.0000 0.0000 0.0000 10.0000 0.0000 0.0000 0.0000 0.0000 0.0000 -5.0000 0.0000 30.0000 -60.0000 0.0000 0.0000 20.0000 0.0000 0.0000 0.0000 0.0000 -30.0000 -60.0000 0.0000 0.0000 20.0000 0.0000 0.0000 0.0000 0.0000 0.0000 0.0000 0.0000 0.0000 -0.0000 0.0000 0.0000 0.0000 0.0000 0.0000 -0.0000 0.0000 0.0000 0.0000 0.0000 0.0000 0.0000 0.0000
0.0000 0.0000 0.0000 0.0000 7.9890 0.0000 0.0000 10.0000 0.0000 0.0000 10.0000 0.0000 0.0000 0.0000 0.0000 0.0000 -5.0000 0.0000 30.0000 -60.0000 0.0000 0.0000 20.0000 0.0000 0.0000 0.0000 0.0000 -30.0000 -60.0000 0.0000 0.0000 20.0000 0.0000 0.0000 0.0000 0.0000 0.0000 -1.4634 0.0000 0.0000 0.0000 0.0000 0.0000 0.0000 0.0000 0.0000 1.4634 0.0000 0.0000 -0.6272 0.0000 0.0000 0.0000 0.0000
0.0000 0.0000 0.0000 0.0000 7.9562 0.0000 0.0000 10.0000 0.0000 0.0000 10.0000 0.0000 0.0000 0.0000 0.0000 0.0000 -5.0000 0.0000 30.0000 -60.0000 0.0000 0.0000 20.0000 0.0000 0.0000 0.0000 0.0000 -30.0000 -60.0000 0.0000 0.0000 20.0000 0.0000 0.0000 0.0000 0.0000 0.0000 -2.9108 0.0000 0.0000 0.0000 0.0000 0.0000 0.0000 0.0000 0.0000 2.9108 0.0000 0.0000 -1.2475 0.0000 0.0000 0.0000 0.0000
0.0000 0.0000 0.0000 0.0000 7.9015 0.0000 0.0000 10.0000 0.0000 0.0000 10.0000 0.0000 0.0000 0.0000 0.0000 0.0000 -5.0000 0.0000 30.0000 -60.0000 0.0000 0.0000 20.0000 0.0000 0.0000 0.0000 0.0000 -30.0000 -60.0000 0.0000 0.0000 20.0000 0.0000 0.0000 0.0000 0.0000 0.0000 -4.3262 0.0000 0.0000 0.0000 0.0000 0.0000 0.0000 0.0000 0.0000 4.3262 0.0000 0.0000 -1.8541 0.0000 0.0000 0.0000 0.0000
0.0000 0.0000 0.0000 0.0000 7.8252 0.0000 0.0000 10.0000 0.0000 0.0000 10.0000 0.0000 0.0000 0.0000 0.0000 0.0000 -5.0000 0.0000 30.0000 -60.0000 0.0000 0.0000 20.0000 0.0000 0.0000 0.0000 0.0000 -30.0000 -60.0000 0.0000 0.0000 20.0000 0.0000 0.0000 0.0000 0.0000 0.0000 -5.6943 0.0000 0.0000 0.0000 0.0000 0.0000 0.0000 0.0000 0.0000 5.6943 0.0000 0.0000 -2.4404 0.0000 0.0000 0.0000 0.0000
0.0000 0.0000 0.0000 0.0000 7.7274 0.0000 0.0000 10.0000 0.0000 0.0000 10.0000 0.0000 0.0000 0.0000 0.0000 0.0000 -5.0000 0.0000 30.0000 -60.0000 0.0000 0.0000 20.0000 0.0000 0.0000 0.0000 0.0000 -30.0000 -60.0000 0.0000 0.0000 20.0000 0.0000 0.0000 0.0000 0.0000 0.0000 -7.0000 0.0000 0.0000 0.0000 0.0000 0.0000 0.0000 0.0000 0.0000 7.0000 0.0000 0.0000 -3.0000 0.0000 0.0000 0.0000 0.0000
0.0000 0.0000 0.0000 0.0000 7.6085 0.0000 0.0000 10.0000 0.0000 0.0000 10.0000 0.0000 0.0000 0.0000 0.0000 0.0000 -5.0000 0.0000 30.0000 -60.0000 0.0000 0.0000 20.0000 0.0000 0.0000 0.0000 0.0000 -30.0000 -60.0000 0.0000 0.0000 20.0000 0.0000 0.0000 0.0000 0.0000 0.0000 -8.2290 0.0000 0.0000 0.0000 0.0000 0.0000 0.0000 0.0000 0.0000 8.2290 0.0000 0.0000 -3.5267 0.0000 0.0000 0.0000 0.0000
0.0000 0.0000 0.0000 0.0000 7.4686 0.0000 0.0000 10.0000 0.0000 0.0000 10.0000 0.0000 0.0000 0.0000 0.0000 0.0000 -5.0000 0.0000 30.0000 -60.0000 0.0000 0.0000 20.0000 0.0000 0.0000 0.0000 0.0000 -30.0000 -60.0000 0.0000 0.0000 20.0000 0.0000 0.0000 0.0000 0.0000 0.0000 -9.3678 0.0000 0.0000 0.0000 0.0000 0.0000 0.0000 0.0000 0.0000 9.3678 0.0000 0.0000 -4.0148 0.0000 0.0000 0.0000 0.0000
0.0000 0.0000 0.0000 0.0000 7.3084 0.0000 0.0000 10.0000 0.0000 0.0000 10.0000 0.0000 0.0000 0.0000 0.0000 0.0000 -5.0000 0.0000 30.0000 -60.0000 0.0000 0.0000 20.0000 0.0000 0.0000 0.0000 0.0000 -30.0000 -60.0000 0.0000 0.0000 20.0000 0.0000 0.0000 0.0000 0.0000 0.0000 -10.4040 0.0000 0.0000 0.0000 0.0000 0.0000 0.0000 0.0000 0.0000 10.4040 0.0000 0.0000 -4.4589 0.0000 0.0000 0.0000 0.0000
0.0000 0.0000 0.0000 0.0000 7.1281 0.0000 0.0000 10.0000 0.0000 0.0000 10.0000 0.0000 0.0000 0.0000 0.0000 0.0000 -5.0000 0.0000 30.0000 -60.0000 0.0000 0.0000 20.0000 0.0000 0.0000 0.0000 0.0000 -30.0000 -60.0000 0.0000 0.0000 20.0000 0.0000 0.0000 0.0000 0.0000 0.0000 -11.3262 0.0000 0.0000 0.0000 0.0000 0.0000 0.0000 0.0000 0.0000 11.3262 0.0000 0.0000 -4.8541 0.0000 0.0000 0.0000 0.0000
0.0000 0.0000 0.0000 0.0000 6.9282 0.0000 0.0000 10.0000 0.0000 0.0000 10.0000 0.0000 0.0000 0.0000 0.0000 0.0000 -5.0000 0.0000 30.0000 -60.0000 0.0000 0.0000 20.0000 0.0000 0.0000 0.0000 0.0000 -30.0000 -60.0000 0.0000 0.0000 20.0000 0.0000 0.0000 0.0000 0.0000 0.0000 -12.1244 0.0000 0.0000 0.0000 0.0000 0.0000 0.0000 0.0000 0.0000 12.1244 0.0000 0.0000 -5.1962 0.0000 0.0000 0.0000 0.0000
0.0000 0.0000 0.0000 0.0000 6.7094 0.0000 0.0000 10.0000 0.0000 0.0000 10.0000 0.0000 0.0000 0.0000 0.0000 0.0000 -5.0000 0.0000 30.0000 -60.0000 0.0000 0.0000 20.0000 0.0000 0.0000 0.0000 0.0000 -30.0000 -60.0000 0.0000 0.0000 20.0000 0.0000 0.0000 0.0000 0.0000 0.0000 -12.7896 0.0000 0.0000 0.0000 0.0000 0.0000 0.0000 0.0000 0.0000 12.7896 0.0000 0.0000 -5.4813 0.0000 0.0000 0.0000 0.0000
0.0000 0.0000 0.0000 0.0000 6.4721 0.0000 0.0000 10.0000 0.0000 0.0000 10.0000 0.0000 0.0000 0.0000 0.0000 0.0000 -5.0000 0.0000 30.0000 -60.0000 0.0000 0.0000 20.0000 0.0000 0.0000 0.0000 0.0000 -30.0000 -60.0000 0.0000 0.0000 20.0000 0.0000 0.0000 0.0000 0.0000 0.0000 -13.3148 0.0000 0.0000 0.0000 0.0000 0.0000 0.0000 0.0000 0.0000 13.3148 0.0000 0.0000 -5.7063 0.0000 0.0000 0.0000 0.0000
0.0000 0.0000 0.0000 0.0000 6.2172 0.0000 0.0000 10.0000 0.0000 0.0000 10.0000 0.0000 0.0000 0.0000 0.0000 0.0000 -5.0000 0.0000 30.0000 -60.0000 0.0000 0.0000 20.0000 0.0000 0.0000 0.0000 0.0000 -30.0000 -60.0000 0.0000 0.0000 20.0000 0.0000 0.0000 0.0000 0.0000 0.0000 -13.6941 0.0000 0.0000 0.0000 0.0000 0.0000 0.0000 0.0000 0.0000 13.6941 0.0000 0.0000 -5.8689 0.0000 0.0000 0.0000 0.0000
0.0000 0.0000 0.0000 0.0000 5.9452 0.0000 0.0000 10.0000 0.0000 0.0000 10.0000 0.0000 0.0000 0.0000 0.0000 0.0000 -5.0000 0.0000 30.0000 -60.0000 0.0000 0.0000 20.0000 0.0000 0.0000 0.0000 0.0000 -30.0000 -60.0000 0.0000 0.0000 20.0000 0.0000 0.0000 0.0000 0.0000 0.0000 -13.9233 0.0000 0.0000 0.0000 0.0000 0.0000 0.0000 0.0000 0.0000 13.9233 0.0000 0.0000 -5.9671 0.0000 0.0000 0.0000 0.0000
0.0000 0.0000 0.0000 0.0000 5.6569 0.0000 0.0000 10.0000 0.0000 0.0000 10.0000 0.0000 0.0000 0.0000 0.0000 0.0000 -5.0000 0.0000 30.0000 -60.0000 0.0000 0.0000 20.0000 0.0000 0.0000 0.0000 0.0000 -30.0000 -60.0000 0.0000 0.0000 20.0000 0.0000 0.0000 0.0000 0.0000 0.0000 -14.0000 0.0000 0.0000 0.0000 0.0000 0.0000 0.0000 0.0000 0.0000 14.0000 0.0000 0.0000 -6.0000 0.0000 0.0000 0.0000 0.0000
0.0000 0.0000 0.0000 0.0000 5.3530 0.0000 0.0000 10.0000 0.0000 0.0000 10.0000 0.0000 0.0000 0.0000 0.0000 0.0000 -5.0000 0.0000 30.0000 -60.0000 0.0000 0.0000 20.0000 0.0000 0.0000 0.0000 0.0000 -30.0000 -60.0000 0.0000 0.0000 20.0000 0.0000 0.0000 0.0000 0.0000 0.0000 -13.9233 0.0000 0.0000 0.0000 0.0000 0.0000 0.0000 0.0000 0.0000 13.9233 0.0000 0.0000 -5.9671 0.0000 0.0000 0.0000 0.0000
0.0000 0.0000 0.0000 0.0000 5.0346 0.0000 0.0000 10.0000 0.0000 0.0000 10.0000 0.0000 0.0000 0.0000 0.0000 0.0000 -5.0000 0.0000 30.0000 -60.0000 0.0000 0.0000 20.0000 0.0000 0.0000 0.0000 0.0000 -30.0000 -60.0000 0.0000 0.0000 20.0000 0.0000 0.0000 0.0000 0.0000 0.0000 -13.6941 0.0000 0.0000 0.0000 0.0000 0.0000 0.0000 0.0000 0.0000 13.6941 0.0000 0.0000 -5.8689 0.0000 0.0000 0.0000 0.0000
0.0000 0.0000 0.0000 0.0000 4.7023 0.0000 0.0000 10.0000 0.0000 0.0000 10.0000 0.0000 0.0000 0.0000 0.0000 0.0000 -5.0000 0.0000 30.0000 -60.0000 0.0000 0.0000 20.0000 0.0000 0.0000 0.0000 0.0000 -30.0000 -60.0000 0.0000 0.0000 20.0000 0.0000 0.0000 0.0000 0.0000 0.0000 -13.3148 0.0000 0.0000 0.0000 0.0000 0.0000 0.0000 0.0000 0.0000 13.3148 0.0000 0.0000 -5.7063 0.0000 0.0000 0.0000 0.0000
0.0000 0.0000 0.0000 0.0000 4.3571 0.0000 0.0000 10.0000 0.0000 0.0000 10.0000 0.0000 0.0000 0.0000 0.0000 0.0000 -5.0000 0.0000 30.0000 -60.0000 0.0000 0.0000 20.0000 0.0000 0.0000 0.0000 0.0000 -30.0000 -60.0000 0.0000 0.0000 20.0000 0.0000 0.0000 0.0000 0.0000 0.0000 -12.7896 0.0000 0.0000 0.0000 0.0000 0.0000 0.0000 0.0000 0.0000 12.7896 0.0000 0.0000 -5.4813 0.0000 0.0000 0.0000 0.0000
0.0000 0.0000 0.0000 0.0000 4.0000 0.0000 0.0000 10.0000 0.0000 0.0000 10.0000 0.0000 0.0000 0.0000 0.0000 0.0000 -5.0000 0.0000 30.0000 -60.0000 0.0000 0.0000 20.0000 0.0000 0.0000 0.0000 0.0000 -30.0000 -60.0000 0.0000 0.0000 20.0000 0.0000 0.0000 0.0000 0.0000 0.0000 -12.1244 0.0000 0.0000 0.0000 0.0000 0.0000 0.0000 0.0000 0.0000 12.1244 0.0000 0.0000 -5.1962 0.0000 0.0000 0.0000 0.0000
0.0000 0.0000 0.0000 0.0000 3.6319 0.0000 0.0000 10.0000 0.0000 0.0000 10.0000 0.0000 0.0000 0.0000 0.0000 0.0000 -5.0000 0.0000 30.0000 -60.0000 0.0000 0.0000 20.0000 0.0000 0.0000 0.0000 0.0000 -30.0000 -60.0000 0.0000 0.0000 20.0000 0.0000 0.0000 0.0000 0.0000 0.0000 -11.3262 0.0000 0.0000 0.0000 0.0000 0.0000 0.0000 0.0000 0.0000 11.3262 0.0000 0.0000 -4.8541 0.0000 0.0000 0.0000 0.0000
0.0000 0.0000 0.0000 0.0000 3.2539 0.0000 0.0000 10.0000 0.0000 0.0000 10.0000 0.0000 0.0000 0.0000 0.0000 0.0000 -5.0000 0.0000 30.0000 -60.0000 0.0000 0.0000 20.0000 0.0000 0.0000 0.0000 0.0000 -30.0000 -60.0000 0.0000 0.0000 20.0000 0.0000 0.0000 0.0000 0.0000 0.0000 -10.4040 0.0000 0.0000 0.0000 0.0000 0.0000 0.0000 0.0000 0.0000 10.4040 0.0000 0.0000 -4.4589 0.0000 0.0000 0.0000 0.0000
0.0000 0.0000 0.0000 0.0000 2.8669 0.0000 0.0000 10.0000 0.0000 0.0000 10.0000 0.0000 0.0000 0.0000 0.0000 0.0000 -5.0000 0.0000 30.0000 -60.0000 0.0000 0.0000 20.0000 0.0000 0.0000 0.0000 0.0000 -30.0000 -60.0000 0.0000 0.0000 20.0000 0.0000 0.0000 0.0000 0.0000 0.0000 -9.3678 0.0000 0.0000 0.0000 0.0000 0.0000 0.0000 0.0000 0.0000 9.3678 0.0000 0.0000 -4.0148 0.0000 0.0000 0.0000 0.0000
0.0000 0.0000 0.0000 0.0000 2.4721 0.0000 0.0000 10.0000 0.0000 0.0000 10.0000 0.0000 0.0000 0.0000 0.0000 0.0000 -5.0000 0.0000 30.0000 -60.0000 0.0000 0.0000 20.0000 0.0000 0.0000 0.0000 0.0000 -30.0000 -60.0000 0.0000 0.0000 20.0000 0.0000 0.0000 0.0000 0.0000 0.0000 -8.2290 0.0000 0.0000 0.0000 0.0000 0.0000 0.0000 0.0000 0.0000 8.2290 0.0000 0.0000 -3.5267 0.0000 0.0000 0.0000 0.0000
0.0000 0.0000 0.0000 0.0000 2.0706 0.0000 0.0000 10.0000 0.0000 0.0000 10.0000 0.0000 0.0000 0.0000 0.0000 0.0000 -5.0000 0.0000 30.0000 -60.0000 0.0000 0.0000 20.0000 0.0000 0.0000 0.0000 0.0000 -30.0000 -60.0000 0.0000 0.0000 20.0000 0.0000 0.0000 0.0000 0.0000 0.0000 -7.0000 0.0000 0.0000 0.0000 0.0000 0.0000 0.0000 0.0000 0.0000 7.0000 0.0000 0.0000 -3.0000 0.0000 0.0000 0.0000 0.0000
0.0000 0.0000 0.0000 0.0000 1.6633 0.0000 0.0000 10.0000 0.0000 0.0000 10.0000 0.0000 0.0000 0.0000 0.0000 0.0000 -5.0000 0.0000 30.0000 -60.0000 0.0000 0.0000 20.0000 0.0000 0.0000 0.0000 0.0000 -30.0000 -60.0000 0.0000 0.0000 20.0000 0.0000 0.0000 0.0000 0.0000 0.0000 -5.6943 0.0000 0.0000 0.0000 0.0000 0.0000 0.0000 0.0000 0.0000 5.6943 0.0000 0.0000 -2.4404 0.0000 0.0000 0.0000 0.0000
0.0000 0.0000 0.0000 0.0000 1.2515 0.0000 0.0000 10.0000 0.0000 0.0000 10.0000 0.0000 0.0000 0.0000 0.0000 0.0000 -5.0000 0.0000 30.0000 -60.0000 0.0000 0.0000 20.0000 0.0000 0.0000 0.0000 0.0000 -30.0000 -60.0000 0.0000 0.0000 20.0000 0.0000 0.0000 0.0000 0.0000 0.0000 -4.3262 0.0000 0.0000 0.0000 0.0000 0.0000 0.0000 0.0000 0.0000 4.3262 0.0000 0.0000 -1.8541 0.0000 0.0000 0.0000 0.0000
0.0000 0.0000 0.0000 0.0000 0.8362 0.0000 0.0000 10.0000 0.0000 0.0000 10.0000 0.0000 0.0000 0.0000 0.0000 0.0000 -5.0000 0.0000 30.0000 -60.0000 0.0000 0.0000 20.0000 0.0000 0.0000 0.0000 0.0000 -30.0000 -60.0000 0.0000 0.0000 20.0000 0.0000 0.0000 0.0000 0.0000 0.0000 -2.9108 0.0000 0.0000 0.0000 0.0000 0.0000 0.0000 0.0000 0.0000 2.9108 0.0000 0.0000 -1.2475 0.0000 0.0000 0.0000 0.0000
0.0000 0.0000 0.0000 0.0000 0.4187 0.0000 0.0000 10.0000 0.0000 0.0000 10.0000 0.0000 0.0000 0.0000 0.0000 0.0000 -5.0000 0.0000 30.0000 -60.0000 0.0000 0.0000 20.0000 0.0000 0.0000 0.0000 0.0000 -30.0000 -60.0000 0.0000 0.0000 20.0000 0.0000 0.0000 0.0000 0.0000 0.0000 -1.4634 0.0000 0.0000 0.0000 0.0000 0.0000 0.0000 0.0000 0.0000 1.4634 0.0000 0.0000 -0.6272 0.0000 0.0000 0.0000 0.0000
